{
  "type": "FeatureCollection",
  "features": [
    {
      "type": "Feature",
      "properties": {
        "norad_id": 66940,
        "name": "STARLINK-36121",
        "group": "last-30-days",
        "lat": -28.09252579001918,
        "lon": -43.555087704101524,
        "alt_km": 410.32719480546984,
        "timestamp": "2025-12-26T21:25:51.735465+00:00",
        "meta_object_name": "STARLINK-36121",
        "meta_object_id": "2025-286R",
        "meta_epoch": "2025-12-26T14:00:04.000032",
        "meta_mean_motion": 15.55030524,
        "meta_eccentricity": 0.00011708,
        "meta_inclination": 53.1593,
        "meta_ra_of_asc_node": 341.5274,
        "meta_arg_of_pericenter": 74.0645,
        "meta_mean_anomaly": 316.715,
        "meta_ephemeris_type": 0,
        "meta_classification_type": "U",
        "meta_norad_cat_id": 66940,
        "meta_element_set_no": 999,
        "meta_rev_at_epoch": 421,
        "meta_bstar": -0.034086728,
        "meta_mean_motion_dot": -0.02075155,
        "meta_mean_motion_ddot": 0,
        "tle_line1": "1 66940U 25286R   25360.58337963 -.02075155  00000+0 -34087-1 0  9997",
        "tle_line2": "2 66940  53.1593 341.5274 0001170  74.0645 316.7150 15.55030524  4214"
      },
      "geometry": {
        "type": "Point",
        "coordinates": [
          -43.555087704101524,
          -28.09252579001918
        ]
      }
    },
    {
      "type": "Feature",
      "properties": {
        "norad_id": 66941,
        "name": "STARLINK-36088",
        "group": "last-30-days",
        "lat": -8.557189156058934,
        "lon": -26.49378897120817,
        "alt_km": 402.51518924965785,
        "timestamp": "2025-12-26T21:25:51.735476+00:00",
        "meta_object_name": "STARLINK-36088",
        "meta_object_id": "2025-286S",
        "meta_epoch": "2025-12-26T14:00:04.000032",
        "meta_mean_motion": 15.56968332,
        "meta_eccentricity": 0.00010556,
        "meta_inclination": 53.1591,
        "meta_ra_of_asc_node": 341.4801,
        "meta_arg_of_pericenter": 74.4748,
        "meta_mean_anomaly": 339.483,
        "meta_ephemeris_type": 0,
        "meta_classification_type": "U",
        "meta_norad_cat_id": 66941,
        "meta_element_set_no": 999,
        "meta_rev_at_epoch": 421,
        "meta_bstar": -0.031320978,
        "meta_mean_motion_dot": -0.02052645,
        "meta_mean_motion_ddot": 0,
        "tle_line1": "1 66941U 25286S   25360.58337963 -.02052645  00000+0 -31321-1 0  9995",
        "tle_line2": "2 66941  53.1591 341.4801 0001055  74.4748 339.4830 15.56968332  4213"
      },
      "geometry": {
        "type": "Point",
        "coordinates": [
          -26.49378897120817,
          -8.557189156058934
        ]
      }
    },
    {
      "type": "Feature",
      "properties": {
        "norad_id": 66942,
        "name": "STARLINK-36100",
        "group": "last-30-days",
        "lat": -26.67907313481608,
        "lon": -42.10037286685604,
        "alt_km": 410.10435372549637,
        "timestamp": "2025-12-26T21:25:51.735485+00:00",
        "meta_object_name": "STARLINK-36100",
        "meta_object_id": "2025-286T",
        "meta_epoch": "2025-12-26T14:00:04.000032",
        "meta_mean_motion": 15.55032507,
        "meta_eccentricity": 0.00010524,
        "meta_inclination": 53.1589,
        "meta_ra_of_asc_node": 341.5236,
        "meta_arg_of_pericenter": 67.4542,
        "meta_mean_anomaly": 325.2425,
        "meta_ephemeris_type": 0,
        "meta_classification_type": "U",
        "meta_norad_cat_id": 66942,
        "meta_element_set_no": 999,
        "meta_rev_at_epoch": 414,
        "meta_bstar": -0.034146919,
        "meta_mean_motion_dot": -0.02078482,
        "meta_mean_motion_ddot": 0,
        "tle_line1": "1 66942U 25286T   25360.58337963 -.02078482  00000+0 -34147-1 0  9992",
        "tle_line2": "2 66942  53.1589 341.5236 0001052  67.4542 325.2425 15.55032507  4145"
      },
      "geometry": {
        "type": "Point",
        "coordinates": [
          -42.10037286685604,
          -26.67907313481608
        ]
      }
    },
    {
      "type": "Feature",
      "properties": {
        "norad_id": 66943,
        "name": "STARLINK-36109",
        "group": "last-30-days",
        "lat": -25.249975883318676,
        "lon": -40.68033615348303,
        "alt_km": 410.01877160581444,
        "timestamp": "2025-12-26T21:25:51.735507+00:00",
        "meta_object_name": "STARLINK-36109",
        "meta_object_id": "2025-286U",
        "meta_epoch": "2025-12-26T14:00:04.000032",
        "meta_mean_motion": 15.55030572,
        "meta_eccentricity": 9.487e-05,
        "meta_inclination": 53.1591,
        "meta_ra_of_asc_node": 341.5194,
        "meta_arg_of_pericenter": 87.7516,
        "meta_mean_anomaly": 306.8665,
        "meta_ephemeris_type": 0,
        "meta_classification_type": "U",
        "meta_norad_cat_id": 66943,
        "meta_element_set_no": 999,
        "meta_rev_at_epoch": 414,
        "meta_bstar": -0.034130216,
        "meta_mean_motion_dot": -0.02077378,
        "meta_mean_motion_ddot": 0,
        "tle_line1": "1 66943U 25286U   25360.58337963 -.02077378  00000+0 -34130-1 0  9998",
        "tle_line2": "2 66943  53.1591 341.5194 0000948  87.7516 306.8665 15.55030572  4142"
      },
      "geometry": {
        "type": "Point",
        "coordinates": [
          -40.68033615348303,
          -25.249975883318676
        ]
      }
    },
    {
      "type": "Feature",
      "properties": {
        "norad_id": 66944,
        "name": "STARLINK-36112",
        "group": "last-30-days",
        "lat": -23.814112723472096,
        "lon": -39.300188498164886,
        "alt_km": 410.0067223813785,
        "timestamp": "2025-12-26T21:25:51.735521+00:00",
        "meta_object_name": "STARLINK-36112",
        "meta_object_id": "2025-286V",
        "meta_epoch": "2025-12-26T14:00:04.000032",
        "meta_mean_motion": 15.5503176,
        "meta_eccentricity": 0.00011844,
        "meta_inclination": 53.1591,
        "meta_ra_of_asc_node": 341.515,
        "meta_arg_of_pericenter": 79.4983,
        "meta_mean_anomaly": 317.0326,
        "meta_ephemeris_type": 0,
        "meta_classification_type": "U",
        "meta_norad_cat_id": 66944,
        "meta_element_set_no": 999,
        "meta_rev_at_epoch": 421,
        "meta_bstar": -0.034152899,
        "meta_mean_motion_dot": -0.02078837,
        "meta_mean_motion_ddot": 0,
        "tle_line1": "1 66944U 25286V   25360.58337963 -.02078837  00000+0 -34153-1 0  9995",
        "tle_line2": "2 66944  53.1591 341.5150 0001184  79.4983 317.0326 15.55031760  4210"
      },
      "geometry": {
        "type": "Point",
        "coordinates": [
          -39.300188498164886,
          -23.814112723472096
        ]
      }
    },
    {
      "type": "Feature",
      "properties": {
        "norad_id": 66945,
        "name": "STARLINK-36110",
        "group": "last-30-days",
        "lat": -22.360672940287554,
        "lon": -37.94469298795552,
        "alt_km": 409.870024116095,
        "timestamp": "2025-12-26T21:25:51.735531+00:00",
        "meta_object_name": "STARLINK-36110",
        "meta_object_id": "2025-286W",
        "meta_epoch": "2025-12-26T14:00:04.000032",
        "meta_mean_motion": 15.55034168,
        "meta_eccentricity": 0.00010438,
        "meta_inclination": 53.1594,
        "meta_ra_of_asc_node": 341.5111,
        "meta_arg_of_pericenter": 83.3969,
        "meta_mean_anomaly": 315.0493,
        "meta_ephemeris_type": 0,
        "meta_classification_type": "U",
        "meta_norad_cat_id": 66945,
        "meta_element_set_no": 999,
        "meta_rev_at_epoch": 421,
        "meta_bstar": -0.034184213,
        "meta_mean_motion_dot": -0.02080612,
        "meta_mean_motion_ddot": 0,
        "tle_line1": "1 66945U 25286W   25360.58337963 -.02080612  00000+0 -34184-1 0  9994",
        "tle_line2": "2 66945  53.1594 341.5111 0001043  83.3969 315.0493 15.55034168  4211"
      },
      "geometry": {
        "type": "Point",
        "coordinates": [
          -37.94469298795552,
          -22.360672940287554
        ]
      }
    },
    {
      "type": "Feature",
      "properties": {
        "norad_id": 66946,
        "name": "STARLINK-36115",
        "group": "last-30-days",
        "lat": -20.899149677766015,
        "lon": -36.62024858502301,
        "alt_km": 409.7466116446785,
        "timestamp": "2025-12-26T21:25:51.735541+00:00",
        "meta_object_name": "STARLINK-36115",
        "meta_object_id": "2025-286X",
        "meta_epoch": "2025-12-26T14:00:04.000032",
        "meta_mean_motion": 15.55030112,
        "meta_eccentricity": 0.00011396,
        "meta_inclination": 53.1595,
        "meta_ra_of_asc_node": 341.5072,
        "meta_arg_of_pericenter": 83.223,
        "meta_mean_anomaly": 317.1414,
        "meta_ephemeris_type": 0,
        "meta_classification_type": "U",
        "meta_norad_cat_id": 66946,
        "meta_element_set_no": 999,
        "meta_rev_at_epoch": 421,
        "meta_bstar": -0.034091467,
        "meta_mean_motion_dot": -0.02075363,
        "meta_mean_motion_ddot": 0,
        "tle_line1": "1 66946U 25286X   25360.58337963 -.02075363  00000+0 -34091-1 0  9999",
        "tle_line2": "2 66946  53.1595 341.5072 0001139  83.2230 317.1414 15.55030112  4216"
      },
      "geometry": {
        "type": "Point",
        "coordinates": [
          -36.62024858502301,
          -20.899149677766015
        ]
      }
    }
  ]
}